ONEWEB-0461             
1 51649U 22012AD  24170.54533403  .00004525  00000+0  11608-1 0  9995
2 51649  87.9165 150.9119 0001962  89.3296 270.8060 13.17694591117934
ONEWEB-0463             
1 51650U 22012AE  24170.45193275  .00007047  00000+0  18083-1 0  9992
2 51650  87.9170 150.9775 0002077  89.4651 270.6719 13.17721846117702
ONEWEB-0464             
1 51651U 22012AF  24170.58238040 -.00000212  00000+0 -64492-3 0  9993
2 51651  87.8936 181.1404 0002378  85.0557 275.0842 13.10370316113907
ONEWEB-0468             
1 51652U 22012AG  24170.58901801 -.00000471  00000+0 -13865-2 0  9990
2 51652  87.8937 181.1318 0002135  89.6177 270.5195 13.10373175113886
ONEWEB-0473             
1 51653U 22012AH  24170.57408192  .00000193  00000+0  51670-3 0  9991
2 51653  87.8937 181.1383 0002162  91.9789 268.1586 13.10371027113885
ONEWEB-0474             
1 51654U 22012AJ  24170.56579355  .00000578  00000+0  16182-2 0  9996
2 51654  87.8927 181.1365 0002330  90.6862 269.4533 13.10371390113878
ONEWEB-0475             
1 51655U 22012AK  24170.46305608  .00006149  00000+0  15780-1 0  9996
2 51655  87.9166 150.9544 0002559  91.1035 269.0390 13.17707872117729
ONEWEB-0490             
1 54113U 22138A   24170.53520694 -.00000122  00000+0 -33609-3 0  9998
2 54113  87.9150  89.9678 0002182  77.5926 282.5451 13.19724938 80723
